OPS 7218 (TRANSIT 16)   
1 02807U 67048A   26063.39764983  .00000157  00000+0  22808-3 0  9993
2 02807  89.6811 351.3379 0018331 237.9872 245.7982 13.50742736893787
OPS 4947 (TRANSIT 17)   
1 02965U 67092A   26063.44172197  .00000187  00000+0  25964-3 0  9992
2 02965  89.2557  18.2109 0047912   1.2291 123.9872 13.53476470882021
OPS 7034 (TRANSIT 18)   
1 03133U 68012A   26063.51140862  .00000157  00000+0  22379-3 0  9999
2 03133  90.0216 273.8583 0072194 294.3668 124.1911 13.51588015580231
NNSS 19 (TRANSIT 19)    
1 04507U 70067A   26063.52083217  .00000143  00000+0  18600-3 0  9996
2 04507  90.0050 234.5777 0173261  56.4080 305.3475 13.51337025733268
NNSS 20 (TRANSIT 20)    
1 06909U 73081A   26063.76548455  .00000252  00000+0  24670-3 0  9994
2 06909  89.8511 253.8062 0154207 191.5858 168.1742 13.71472977814853
TRANSAT                 
1 10457U 77106A   26063.53809876  .00000088  00000+0  12456-3 0  9997
2 10457  89.6396  75.6619 0024203 321.2376 151.2837 13.48957192378463
NOVA 1                  
1 12458U 81044A   26063.79594327  .00000042  00000+0  78000-4 0  9994
2 12458  89.8426  90.1902 0012695 233.4093 300.0981 13.23286936162718
NOVA 3                  
1 15362U 84110A   26063.83734586  .00000083  00000+0  17544-3 0  9996
2 15362  90.1128  81.4632 0033423 102.5015  72.1116 13.23056258997843
OSCAR 30                
1 15935U 85066A   26063.53484223  .00000100  00000+0  16504-3 0  9995
2 15935  90.1552 101.1540 0166817 212.3552 276.3102 13.36094055975455
OSCAR 24                
1 15936U 85066B   26063.83697639  .00000107  00000+0  17889-3 0  9990
2 15936  90.1689  93.7225 0167673 218.0730 316.2854 13.35951904977392
POLAR BEAR              
1 17070U 86088A   26063.77640193  .00000137  00000+0  13071-3 0  9994
2 17070  89.6250 180.5117 0037889 231.0054 283.6055 13.75269131971060
OSCAR 27                
1 18361U 87080A   26063.75513700  .00000113  00000+0  17343-3 0  9992
2 18361  90.3648  82.3011 0103419 350.8240   9.1015 13.44923637886590
OSCAR 29                
1 18362U 87080B   26063.81635931  .00000107  00000+0  16398-3 0  9993
2 18362  90.3656  82.7687 0105810  13.8694 159.0476 13.44463843886122
OSCAR 23                
1 19070U 88033A   26063.80849623  .00000113  00000+0  21513-3 0  9995
2 19070  90.3286  18.9487 0188132 312.6525  81.5463 13.27802904833424
OSCAR 32                
1 19071U 88033B   26063.41519550  .00000085  00000+0  15818-3 0  9995
2 19071  90.3290  19.0726 0186255 300.4560 173.8855 13.27967527833496
NOVA 2                  
1 19223U 88052A   26063.77150397  .00000077  00000+0  16130-3 0  9993
2 19223  89.9781  78.1326 0031487 144.6351  29.1863 13.22947014820322
OSCAR 25                
1 19419U 88074A   26063.43654681  .00000139  00000+0  22320-3 0  9999
2 19419  90.0412  20.5199 0096824  14.4171 104.3691 13.42640631837366
OSCAR 31                
1 19420U 88074B   26063.46282347  .00000095  00000+0  14892-3 0  9996
2 19420  90.0427  20.8832 0094810   8.6304 108.8172 13.42596920837473
